CUTE-1 (CO-55)          
1 27844U 03031E   26169.02064842  .00000221  00000+0  11471-3 0  9993
2 27844  98.6736 177.5689 0009609 175.5784 184.5482 14.24336174191794
CUBESAT XI-IV (CO-57)   
1 27848U 03031J   26168.93924090  .00000186  00000+0  10079-3 0  9999
2 27848  98.6765 177.2007 0009073 194.7196 165.3719 14.23621196191482
CUBESAT XI-V            
1 28895U 05043F   26168.94617719  .00001113  00000+0  18286-3 0  9994
2 28895  98.2987 324.5839 0013704 198.2082 161.8635 14.72633352101868
CUTE-1.7+APD II (CO-65) 
1 32785U 08021C   26169.57458570  .00004310  00000+0  27313-3 0  9997
2 32785  97.8275 151.0219 0009610  34.4891 325.6959 15.09461529985406
CANX-2                  
1 32790U 08021H   26168.88637359  .00003690  00000+0  25995-3 0  9994
2 32790  97.8640 148.6774 0011418  48.7586 311.4622 15.05623552984911
SEEDS II (CO-66)        
1 32791U 08021J   26169.44123303  .00014056  00000+0  44622-3 0  9993
2 32791  97.7517 167.3987 0000889 357.5135   2.6101 15.32786684987481
SWISSCUBE               
1 35932U 09051B   26169.26333948  .00000756  00000+0  15894-3 0  9996
2 35932  98.4034  77.1704 0006030 199.2833 160.8141 14.62483386889317
BEESAT-1                
1 35933U 09051C   26169.61559876  .00000635  00000+0  13728-3 0  9996
2 35933  98.3962  77.1613 0004303 211.4953 148.5991 14.61722485889396
ITUPSAT1                
1 35935U 09051E   26169.19666220  .00000591  00000+0  13197-3 0  9994
2 35935  98.4047  75.9267 0006285 230.1057 129.9590 14.60442029888881
TISAT 1                 
1 36799U 10035E   26169.29299463  .00015546  00000+0  50955-3 0  9998
2 36799  98.0713 115.9399 0001544 166.4985 193.6296 15.31742601867876
AEROCUBE 4.5A           
1 38767U 12048K   26168.97635548  .00442913  87798-4  10009-2 0  9994
2 38767  64.6231  23.9913 0019643 225.6747 134.2807 15.96962877372780
STRAND-1                
1 39090U 13009E   26169.44844385  .00000197  00000+0  80676-4 0  9995
2 39090  98.3922 349.6518 0007793 221.0490 139.0111 14.37163853697241
BRITE-AUSTRIA           
1 39091U 13009F   26169.32256041  .00000128  00000+0  58246-4 0  9991
2 39091  98.3995 348.7301 0009190 232.6910 127.3439 14.36542508697217
NEE-01 PEGASO           
1 39151U 13018B   26169.33746021  .00002315  00000+0  22456-3 0  9994
2 39151  98.1225 313.5252 0013220 155.6183 204.5663 14.93664438710873
POPACS 2                
1 39269U 13055E   26168.91462475  .00012434  00000+0  21016-3 0  9990
2 39269  80.9908 143.3595 0416814 191.4338 167.7191 14.91227563663320
POPACS 3                
1 39270U 13055F   26169.42500432  .00007680  00000+0  18030-3 0  9994
2 39270  81.0003 227.8457 0552048  66.2304 299.5770 14.56141061638730
ZACUBE-1 (TSHEPISOSAT)  
1 39417U 13066B   26169.34046200  .00002374  00000+0  18681-3 0  9995
2 39417  97.8077 131.6833 0040949 243.7163 115.9851 15.01194004680909
WNISAT-1                
1 39423U 13066H   26169.37774372  .00000733  00000+0  14230-3 0  9996
2 39423  97.7203 318.4495 0162033 227.8152 130.9197 14.58064055666902
TRITON-1                
1 39427U 13066M   26169.57872139  .00001639  00000+0  20137-3 0  9991
2 39427  97.8250  79.3544 0088533 229.3058 130.0439 14.81709946674293
GOMX-1                  
1 39430U 13066Q   26169.61592211  .00001740  00000+0  26533-3 0  9999
2 39430  97.6475   9.9882 0130163  72.9901 288.5521 14.69465758670129
CUBEBUG-2 (LO-74)       
1 39440U 13066AA  26169.60385935  .00004033  00000+0  37369-3 0  9999
2 39440  97.8910 118.5878 0058306  24.5043 335.8927 14.93772226677206
NEE-02 KRYSAOR          
1 39441U 13066AB  26169.55535490  .00001775  00000+0  19825-3 0  9994
2 39441  97.8893 108.7601 0067603  65.8333 294.9931 14.86622868676401
FUNCUBE-1 (AO-73)       
1 39444U 13066AE  26169.38232847  .00004855  00000+0  30274-3 0  9991
2 39444  97.8280 140.8531 0035736 196.6039 163.4022 15.09501889679848
UWE-3                   
1 39446U 13066AG  26169.61929383  .00003597  00000+0  31072-3 0  9996
2 39446  97.8699 125.7026 0047372 316.3669  43.3811 14.97034048677792
BRITE-CA1 (TORONTO)     
1 40020U 14033L   26169.60050783  .00000571  00000+0  93677-4 0  9998
2 40020  97.9742 298.5023 0077213 272.4058  86.8311 14.72678402642429
DUCHIFAT-1              
1 40021U 14033M   26169.42860156  .00087001  00000+0  88745-3 0  9994
2 40021  98.0449 228.7634 0002884 114.5006 245.6553 15.64804181655941
NANOSATC-BR1            
1 40024U 14033Q   26169.05482056  .00013269  00000+0  43894-3 0  9996
2 40024  98.0715 201.5196 0004490 160.3673 199.7740 15.31480608654119
QB50P1                  
1 40025U 14033R   26169.60000342  .00006188  00000+0  30544-3 0  9992
2 40025  98.0962 180.8451 0007982 209.9659 150.1117 15.18277268653243
QB50P2                  
1 40032U 14033Y   26169.42091575  .00005598  00000+0  30212-3 0  9994
2 40032  98.0750 166.3777 0008130 159.5672 200.5885 15.15170873652856
PERSEUS-M2              
1 40037U 14033AD  26169.60201814  .00001096  00000+0  10439-3 0  9996
2 40037  97.9965 120.1714 0010532 298.8231  61.1931 14.95511437650991
